[{"OBJECT_NAME":"STARLINK-2237","OBJECT_ID":"2021-041AG","EPOCH":"2026-03-09T10:20:21.854400","MEAN_MOTION":15.06400549,"ECCENTRICITY":0.00014068,"INCLINATION":53.0553,"RA_OF_ASC_NODE":142.7839,"ARG_OF_PERICENTER":97.6803,"MEAN_ANOMALY":262.4346,"EPHEMERIS_TYPE":0,"CLASSIFICATION_TYPE":"U","NORAD_CAT_ID":48583,"ELEMENT_SET_NO":999,"REV_AT_EPOCH":26502,"BSTAR":-7.9771508e-5,"MEAN_MOTION_DOT":-1.469e-5,"MEAN_MOTION_DDOT":0},{"OBJECT_NAME":"CZ-6A DEB","OBJECT_ID":"2022-151EL","EPOCH":"2026-03-09T12:09:26.951616","MEAN_MOTION":14.86893831,"ECCENTRICITY":0.00944101,"INCLINATION":98.6325,"RA_OF_ASC_NODE":168.3306,"ARG_OF_PERICENTER":70.5159,"MEAN_ANOMALY":290.6224,"EPHEMERIS_TYPE":0,"CLASSIFICATION_TYPE":"U","NORAD_CAT_ID":54412,"ELEMENT_SET_NO":999,"REV_AT_EPOCH":17774,"BSTAR":0.0014840705,"MEAN_MOTION_DOT":0.00014338,"MEAN_MOTION_DDOT":0}]
